{
  "type": "FeatureCollection",
  "features": [
    {
      "type": "Feature",
      "properties": {
        "norad_id": 19071,
        "name": "OSCAR 32",
        "group": "nnss",
        "lat": 35.00317678422231,
        "lon": -163.22152374890032,
        "alt_km": 1017.9611502269709,
        "timestamp": "2025-12-13T15:35:12.375094+00:00",
        "meta_object_name": "OSCAR 32",
        "meta_object_id": "1988-033B",
        "meta_epoch": "2025-12-13T00:27:35.034336",
        "meta_mean_motion": 13.27954043,
        "meta_eccentricity": 0.0188385,
        "meta_inclination": 90.3218,
        "meta_ra_of_asc_node": 16.5333,
        "meta_arg_of_pericenter": 166.0148,
        "meta_mean_anomaly": 208.1507,
        "meta_ephemeris_type": 0,
        "meta_classification_type": "U",
        "meta_norad_cat_id": 19071,
        "meta_element_set_no": 999,
        "meta_rev_at_epoch": 82269,
        "meta_bstar": 0.00018873566,
        "meta_mean_motion_dot": 1.03e-06,
        "meta_mean_motion_ddot": 0,
        "tle_line1": "1 19071U 88033B   25347.01915549  .00000103  00000+0  18874-3 0  9999",
        "tle_line2": "2 19071  90.3218  16.5333 0188385 166.0148 208.1507 13.27954043822691"
      },
      "geometry": {
        "type": "Point",
        "coordinates": [
          -163.22152374890032,
          35.00317678422231
        ]
      }
    },
    {
      "type": "Feature",
      "properties": {
        "norad_id": 19223,
        "name": "NOVA 2",
        "group": "nnss",
        "lat": -33.92966343943741,
        "lon": 78.26269995561657,
        "alt_km": 1164.2945903048621,
        "timestamp": "2025-12-13T15:35:12.375104+00:00",
        "meta_object_name": "NOVA 2",
        "meta_object_id": "1988-052A",
        "meta_epoch": "2025-12-13T00:17:40.824384",
        "meta_mean_motion": 13.22935856,
        "meta_eccentricity": 0.00305697,
        "meta_inclination": 89.9872,
        "meta_ra_of_asc_node": 78.2721,
        "meta_arg_of_pericenter": 16.1693,
        "meta_mean_anomaly": 157.4485,
        "meta_ephemeris_type": 0,
        "meta_classification_type": "U",
        "meta_norad_cat_id": 19223,
        "meta_element_set_no": 999,
        "meta_rev_at_epoch": 80951,
        "meta_bstar": 0.0001904171,
        "meta_mean_motion_dot": 8.9e-07,
        "meta_mean_motion_ddot": 0,
        "tle_line1": "1 19223U 88052A   25347.01227806  .00000089  00000+0  19042-3 0  9992",
        "tle_line2": "2 19223  89.9872  78.2721 0030569  16.1693 157.4485 13.22935856809519"
      },
      "geometry": {
        "type": "Point",
        "coordinates": [
          78.26269995561657,
          -33.92966343943741
        ]
      }
    },
    {
      "type": "Feature",
      "properties": {
        "norad_id": 19419,
        "name": "OSCAR 25",
        "group": "nnss",
        "lat": 73.70188787415482,
        "lon": -159.63350760002155,
        "alt_km": 1143.8973309313324,
        "timestamp": "2025-12-13T15:35:12.375115+00:00",
        "meta_object_name": "OSCAR 25",
        "meta_object_id": "1988-074A",
        "meta_epoch": "2025-12-13T01:01:55.223328",
        "meta_mean_motion": 13.42623332,
        "meta_eccentricity": 0.00944562,
        "meta_inclination": 90.0348,
        "meta_ra_of_asc_node": 20.2453,
        "meta_arg_of_pericenter": 244.9614,
        "meta_mean_anomaly": 172.5461,
        "meta_ephemeris_type": 0,
        "meta_classification_type": "U",
        "meta_norad_cat_id": 19419,
        "meta_element_set_no": 999,
        "meta_rev_at_epoch": 82644,
        "meta_bstar": 0.00020215689,
        "meta_mean_motion_dot": 1.26e-06,
        "meta_mean_motion_ddot": 0,
        "tle_line1": "1 19419U 88074A   25347.04300027  .00000126  00000+0  20216-3 0  9990",
        "tle_line2": "2 19419  90.0348  20.2453 0094456 244.9614 172.5461 13.42623332826443"
      },
      "geometry": {
        "type": "Point",
        "coordinates": [
          -159.63350760002155,
          73.70188787415482
        ]
      }
    },
    {
      "type": "Feature",
      "properties": {
        "norad_id": 19420,
        "name": "OSCAR 31",
        "group": "nnss",
        "lat": -8.486829027600942,
        "lon": 20.602910929418385,
        "alt_km": 1131.6457851957866,
        "timestamp": "2025-12-13T15:35:12.375125+00:00",
        "meta_object_name": "OSCAR 31",
        "meta_object_id": "1988-074B",
        "meta_epoch": "2025-12-12T23:50:41.857728",
        "meta_mean_motion": 13.42584618,
        "meta_eccentricity": 0.00927656,
        "meta_inclination": 90.0364,
        "meta_ra_of_asc_node": 20.5951,
        "meta_arg_of_pericenter": 239.2154,
        "meta_mean_anomaly": 183.1059,
        "meta_ephemeris_type": 0,
        "meta_classification_type": "U",
        "meta_norad_cat_id": 19420,
        "meta_element_set_no": 999,
        "meta_rev_at_epoch": 82654,
        "meta_bstar": 0.00017116515,
        "meta_mean_motion_dot": 1.08e-06,
        "meta_mean_motion_ddot": 0,
        "tle_line1": "1 19420U 88074B   25346.99354002  .00000108  00000+0  17117-3 0  9993",
        "tle_line2": "2 19420  90.0364  20.5951 0092765 239.2154 183.1059 13.42584618826541"
      },
      "geometry": {
        "type": "Point",
        "coordinates": [
          20.602910929418385,
          -8.486829027600942
        ]
      }
    }
  ]
}